{
  "type": "FeatureCollection",
  "features": [
    {
      "type": "Feature",
      "properties": {
        "norad_id": 40362,
        "name": "YAOGAN-26",
        "group": "resource",
        "lat": 50.86305731569536,
        "lon": -25.485943146122743,
        "alt_km": 439.6835114318301,
        "timestamp": "2025-12-08T10:52:02.606580+00:00",
        "meta_object_name": "YAOGAN-26",
        "meta_object_id": "2014-088A",
        "meta_epoch": "2025-12-07T23:43:19.858656",
        "meta_mean_motion": 15.39048835,
        "meta_eccentricity": 0.00067799,
        "meta_inclination": 97.0643,
        "meta_ra_of_asc_node": 342.8321,
        "meta_arg_of_pericenter": 43.2491,
        "meta_mean_anomaly": 316.9287,
        "meta_ephemeris_type": 0,
        "meta_classification_type": "U",
        "meta_norad_cat_id": 40362,
        "meta_element_set_no": 999,
        "meta_rev_at_epoch": 60821,
        "meta_bstar": 0.0005894594,
        "meta_mean_motion_dot": 0.00022775,
        "meta_mean_motion_ddot": 0,
        "tle_line1": "1 40362U 14088A   25341.98842429  .00022775  00000+0  58946-3 0  9994",
        "tle_line2": "2 40362  97.0643 342.8321 0006779  43.2491 316.9287 15.39048835608210"
      },
      "geometry": {
        "type": "Point",
        "coordinates": [
          -25.485943146122743,
          50.86305731569536
        ]
      }
    },
    {
      "type": "Feature",
      "properties": {
        "norad_id": 40376,
        "name": "SMAP",
        "group": "resource",
        "lat": 28.19017794373039,
        "lon": -17.1551504413126,
        "alt_km": 680.7332672875082,
        "timestamp": "2025-12-08T10:52:02.606591+00:00",
        "meta_object_name": "SMAP",
        "meta_object_id": "2015-003A",
        "meta_epoch": "2025-12-07T23:15:00.331776",
        "meta_mean_motion": 14.63335214,
        "meta_eccentricity": 0.00012042,
        "meta_inclination": 98.129,
        "meta_ra_of_asc_node": 346.7614,
        "meta_arg_of_pericenter": 88.013,
        "meta_mean_anomaly": 272.121,
        "meta_ephemeris_type": 0,
        "meta_classification_type": "U",
        "meta_norad_cat_id": 40376,
        "meta_element_set_no": 999,
        "meta_rev_at_epoch": 57965,
        "meta_bstar": 0.00018917284,
        "meta_mean_motion_dot": 9.3e-06,
        "meta_mean_motion_ddot": 0,
        "tle_line1": "1 40376U 15003A   25341.96875384  .00000930  00000+0  18917-3 0  9994",
        "tle_line2": "2 40376  98.1290 346.7614 0001204  88.0130 272.1210 14.63335214579658"
      },
      "geometry": {
        "type": "Point",
        "coordinates": [
          -17.1551504413126,
          28.19017794373039
        ]
      }
    },
    {
      "type": "Feature",
      "properties": {
        "norad_id": 40536,
        "name": "KOMPSAT-3A",
        "group": "resource",
        "lat": -77.24622856009304,
        "lon": -6.845848159184095,
        "alt_km": 444.96769719622534,
        "timestamp": "2025-12-08T10:52:02.606601+00:00",
        "meta_object_name": "KOMPSAT-3A",
        "meta_object_id": "2015-014A",
        "meta_epoch": "2025-12-07T22:46:01.801344",
        "meta_mean_motion": 15.43685349,
        "meta_eccentricity": 0.00043711,
        "meta_inclination": 97.6788,
        "meta_ra_of_asc_node": 316.0313,
        "meta_arg_of_pericenter": 136.8052,
        "meta_mean_anomaly": 223.3539,
        "meta_ephemeris_type": 0,
        "meta_classification_type": "U",
        "meta_norad_cat_id": 40536,
        "meta_element_set_no": 999,
        "meta_rev_at_epoch": 59221,
        "meta_bstar": 0.00050638632,
        "meta_mean_motion_dot": 0.00022788,
        "meta_mean_motion_ddot": 0,
        "tle_line1": "1 40536U 15014A   25341.94863196  .00022788  00000+0  50639-3 0  9992",
        "tle_line2": "2 40536  97.6788 316.0313 0004371 136.8052 223.3539 15.43685349592216"
      },
      "geometry": {
        "type": "Point",
        "coordinates": [
          -6.845848159184095,
          -77.24622856009304
        ]
      }
    },
    {
      "type": "Feature",
      "properties": {
        "norad_id": 40697,
        "name": "SENTINEL-2A",
        "group": "resource",
        "lat": 37.43232072364154,
        "lon": 48.4184051659101,
        "alt_km": 785.8074148109608,
        "timestamp": "2025-12-08T10:52:02.606611+00:00",
        "meta_object_name": "SENTINEL-2A",
        "meta_object_id": "2015-028A",
        "meta_epoch": "2025-12-07T22:56:33.073440",
        "meta_mean_motion": 14.30824413,
        "meta_eccentricity": 0.00010261,
        "meta_inclination": 98.5699,
        "meta_ra_of_asc_node": 54.5569,
        "meta_arg_of_pericenter": 94.5262,
        "meta_mean_anomaly": 265.6038,
        "meta_ephemeris_type": 0,
        "meta_classification_type": "U",
        "meta_norad_cat_id": 40697,
        "meta_element_set_no": 999,
        "meta_rev_at_epoch": 54638,
        "meta_bstar": 0.00012249654,
        "meta_mean_motion_dot": 2.77e-06,
        "meta_mean_motion_ddot": 0,
        "tle_line1": "1 40697U 15028A   25341.95593835  .00000277  00000+0  12250-3 0  9992",
        "tle_line2": "2 40697  98.5699  54.5569 0001026  94.5262 265.6038 14.30824413546381"
      },
      "geometry": {
        "type": "Point",
        "coordinates": [
          48.4184051659101,
          37.43232072364154
        ]
      }
    },
    {
      "type": "Feature",
      "properties": {
        "norad_id": 40701,
        "name": "GAOFEN-8",
        "group": "resource",
        "lat": -46.276272098176584,
        "lon": -27.73838543695988,
        "alt_km": 455.67910699112235,
        "timestamp": "2025-12-08T10:52:02.606621+00:00",
        "meta_object_name": "GAOFEN-8",
        "meta_object_id": "2015-030A",
        "meta_epoch": "2025-12-07T22:57:26.834112",
        "meta_mean_motion": 15.3831091,
        "meta_eccentricity": 0.00114236,
        "meta_inclination": 97.6912,
        "meta_ra_of_asc_node": 159.8648,
        "meta_arg_of_pericenter": 154.7541,
        "meta_mean_anomaly": 205.4264,
        "meta_ephemeris_type": 0,
        "meta_classification_type": "U",
        "meta_norad_cat_id": 40701,
        "meta_element_set_no": 999,
        "meta_rev_at_epoch": 58197,
        "meta_bstar": 0.00057651226,
        "meta_mean_motion_dot": 0.00021763,
        "meta_mean_motion_ddot": 0,
        "tle_line1": "1 40701U 15030A   25341.95656058  .00021763  00000+0  57651-3 0  9995",
        "tle_line2": "2 40701  97.6912 159.8648 0011423 154.7541 205.4264 15.38310910581971"
      },
      "geometry": {
        "type": "Point",
        "coordinates": [
          -27.73838543695988,
          -46.276272098176584
        ]
      }
    },
    {
      "type": "Feature",
      "properties": {
        "norad_id": 40718,
        "name": "CARBONITE 1 (CBNT-1)",
        "group": "resource",
        "lat": -62.39450684651712,
        "lon": 178.5605991398276,
        "alt_km": 629.8397676179038,
        "timestamp": "2025-12-08T10:52:02.606632+00:00",
        "meta_object_name": "CARBONITE 1 (CBNT-1)",
        "meta_object_id": "2015-032D",
        "meta_epoch": "2025-12-07T22:11:46.175136",
        "meta_mean_motion": 14.8270868,
        "meta_eccentricity": 0.00141229,
        "meta_inclination": 97.6403,
        "meta_ra_of_asc_node": 163.1813,
        "meta_arg_of_pericenter": 197.4332,
        "meta_mean_anomaly": 162.6399,
        "meta_ephemeris_type": 0,
        "meta_classification_type": "U",
        "meta_norad_cat_id": 40718,
        "meta_element_set_no": 999,
        "meta_rev_at_epoch": 56099,
        "meta_bstar": 0.00045660358,
        "meta_mean_motion_dot": 3.641e-05,
        "meta_mean_motion_ddot": 0,
        "tle_line1": "1 40718U 15032D   25341.92483999  .00003641  00000+0  45660-3 0  9996",
        "tle_line2": "2 40718  97.6403 163.1813 0014122 197.4332 162.6399 14.82708680560992"
      },
      "geometry": {
        "type": "Point",
        "coordinates": [
          178.5605991398276,
          -62.39450684651712
        ]
      }
    },
    {
      "type": "Feature",
      "properties": {
        "norad_id": 40878,
        "name": "YAOGAN-27",
        "group": "resource",
        "lat": 41.98142398381406,
        "lon": -36.96261183682534,
        "alt_km": 1197.7788874179014,
        "timestamp": "2025-12-08T10:52:02.606642+00:00",
        "meta_object_name": "YAOGAN-27",
        "meta_object_id": "2015-040A",
        "meta_epoch": "2025-12-07T23:42:13.020480",
        "meta_mean_motion": 13.16060047,
        "meta_eccentricity": 0.00076661,
        "meta_inclination": 100.1008,
        "meta_ra_of_asc_node": 331.8227,
        "meta_arg_of_pericenter": 298.4422,
        "meta_mean_anomaly": 61.5919,
        "meta_ephemeris_type": 0,
        "meta_classification_type": "U",
        "meta_norad_cat_id": 40878,
        "meta_element_set_no": 999,
        "meta_rev_at_epoch": 49251,
        "meta_bstar": 5.4450837e-05,
        "meta_mean_motion_dot": -2.2e-07,
        "meta_mean_motion_ddot": 0,
        "tle_line1": "1 40878U 15040A   25341.98765070 -.00000022  00000+0  54451-4 0  9991",
        "tle_line2": "2 40878 100.1008 331.8227 0007666 298.4422  61.5919 13.16060047492511"
      },
      "geometry": {
        "type": "Point",
        "coordinates": [
          -36.96261183682534,
          41.98142398381406
        ]
      }
    }
  ]
}